STARLINK-30960          
1 58456U 23183V   26052.58335648  .00274402  00000+0  39257-2 0  9998
2 58456  42.9925  43.3315 0021541 134.0188  19.5424 15.54259851  5698
STARLINK-30958          
1 58457U 23183W   26052.58060782  .00000437  00000+0  47402-4 0  9991
2 58457  43.0033 130.6294 0001354 275.3212  84.7476 15.02542847124296
STARLINK-30962          
1 58458U 23183X   26052.22380777  .00000108  00000+0  23105-4 0  9991
2 58458  43.0033 132.2546 0001711 273.4897  86.5750 15.02538973124245
STARLINK-30977          
1 58459U 23183Y   26052.26043210  .00000452  00000+0  48539-4 0  9994
2 58459  43.0024 132.5199 0001186 268.8789  91.1918 15.02536664124240
STARLINK-30947          
1 58473U 23186A   26052.30834109  .00000942  00000+0  84769-4 0  9992
2 58473  43.0019 156.7802 0001520 268.5854  91.4814 15.02535019123386
STARLINK-30995          
1 58474U 23186B   26052.58335648  .00316328  00000+0  12211-2 0  9996
2 58474  42.9828 318.8592 0026032 218.3561 105.0699 15.85133401  5947
STARLINK-30941          
1 58475U 23186C   26052.30168412 -.00005424  00000+0 -38663-3 0  9994
2 58475  43.0022 156.7288 0001451 253.7205 106.3478 15.02547286123380
STARLINK-30980          
1 58476U 23186D   26052.29837297 -.00001322  00000+0 -82863-4 0  9992
2 58476  43.0018 156.7019 0001152 258.2700 101.8013 15.02517555123387
STARLINK-30965          
1 58477U 23186E   26052.28415024  .00003333  00000+0  26154-3 0  9994
2 58477  43.0026 143.5905 0001721 259.5017 100.5632 15.02561899123532
STARLINK-30990          
1 58478U 23186F   26052.29502243  .00000751  00000+0  70691-4 0  9993
2 58478  43.0037 156.6785 0001737 268.1139  91.9504 15.02534060123423
STARLINK-30984          
1 58480U 23186H   26052.58335648  .01276864  00000+0  55727-1 0  9992
2 58480  43.0007 154.0471 0001380 275.8252 293.1319 15.18773305  5784
STARLINK-30956          
1 58481U 23186J   26052.26479919  .00000347  00000+0  40749-4 0  9999
2 58481  43.0009 132.0268 0001416 267.4234  92.6446 15.02535418123669
STARLINK-30997          
1 58482U 23186K   26052.58335648  .02587624  00000+0  11260+0 0  9996
2 58482  43.0000 154.2579 0000407 316.9226 153.6402 15.18190017  5772
STARLINK-30994          
1 58483U 23186L   26052.20887080 -.00000651  00000+0 -14132-4 0  9994
2 58483  43.0005 353.2414 0000805 217.5561 142.5235 15.27571828125280
STARLINK-30991          
1 58484U 23186M   26052.58335648  .01277155  00000+0  56124-1 0  9992
2 58484  43.0007 154.0127 0001368 281.6288 301.2340 15.18533995  5735
STARLINK-30979          
1 58485U 23186N   26052.58335648  .01285045  00000+0  57747-1 0  9992
2 58485  43.0000 154.6192 0001110 294.3388  36.7601 15.17736561  5681
