[{"OBJECT_NAME":"STARLINK-30960","OBJECT_ID":"2023-183V","EPOCH":"2026-02-21T14:00:01.999872","MEAN_MOTION":15.54259851,"ECCENTRICITY":0.00215414,"INCLINATION":42.9925,"RA_OF_ASC_NODE":43.3315,"ARG_OF_PERICENTER":134.0188,"MEAN_ANOMALY":19.5424,"EPHEMERIS_TYPE":0,"CLASSIFICATION_TYPE":"U","NORAD_CAT_ID":58456,"ELEMENT_SET_NO":999,"REV_AT_EPOCH":569,"BSTAR":0.0039256753,"MEAN_MOTION_DOT":0.00274402,"MEAN_MOTION_DDOT":0},{"OBJECT_NAME":"STARLINK-30958","OBJECT_ID":"2023-183W","EPOCH":"2026-02-21T13:56:04.515648","MEAN_MOTION":15.02542847,"ECCENTRICITY":0.00013548,"INCLINATION":43.0033,"RA_OF_ASC_NODE":130.6294,"ARG_OF_PERICENTER":275.3212,"MEAN_ANOMALY":84.7476,"EPHEMERIS_TYPE":0,"CLASSIFICATION_TYPE":"U","NORAD_CAT_ID":58457,"ELEMENT_SET_NO":999,"REV_AT_EPOCH":12429,"BSTAR":4.7401909e-5,"MEAN_MOTION_DOT":4.37e-6,"MEAN_MOTION_DDOT":0},{"OBJECT_NAME":"STARLINK-30962","OBJECT_ID":"2023-183X","EPOCH":"2026-02-21T05:22:16.991328","MEAN_MOTION":15.02538973,"ECCENTRICITY":0.0001711,"INCLINATION":43.0033,"RA_OF_ASC_NODE":132.2546,"ARG_OF_PERICENTER":273.4897,"MEAN_ANOMALY":86.575,"EPHEMERIS_TYPE":0,"CLASSIFICATION_TYPE":"U","NORAD_CAT_ID":58458,"ELEMENT_SET_NO":999,"REV_AT_EPOCH":12424,"BSTAR":2.3105e-5,"MEAN_MOTION_DOT":1.08e-6,"MEAN_MOTION_DDOT":0},{"OBJECT_NAME":"STARLINK-30977","OBJECT_ID":"2023-183Y","EPOCH":"2026-02-21T06:15:01.333440","MEAN_MOTION":15.02536664,"ECCENTRICITY":0.0001186,"INCLINATION":43.0024,"RA_OF_ASC_NODE":132.5199,"ARG_OF_PERICENTER":268.8789,"MEAN_ANOMALY":91.1918,"EPHEMERIS_TYPE":0,"CLASSIFICATION_TYPE":"U","NORAD_CAT_ID":58459,"ELEMENT_SET_NO":999,"REV_AT_EPOCH":12424,"BSTAR":4.8539e-5,"MEAN_MOTION_DOT":4.52e-6,"MEAN_MOTION_DDOT":0},{"OBJECT_NAME":"STARLINK-30947","OBJECT_ID":"2023-186A","EPOCH":"2026-02-21T07:24:00.670176","MEAN_MOTION":15.02535019,"ECCENTRICITY":0.000152,"INCLINATION":43.0019,"RA_OF_ASC_NODE":156.7802,"ARG_OF_PERICENTER":268.5854,"MEAN_ANOMALY":91.4814,"EPHEMERIS_TYPE":0,"CLASSIFICATION_TYPE":"U","NORAD_CAT_ID":58473,"ELEMENT_SET_NO":999,"REV_AT_EPOCH":12338,"BSTAR":8.4769e-5,"MEAN_MOTION_DOT":9.42e-6,"MEAN_MOTION_DDOT":0},{"OBJECT_NAME":"STARLINK-30995","OBJECT_ID":"2023-186B","EPOCH":"2026-02-21T14:00:01.999872","MEAN_MOTION":15.85133401,"ECCENTRICITY":0.00260322,"INCLINATION":42.9828,"RA_OF_ASC_NODE":318.8592,"ARG_OF_PERICENTER":218.3561,"MEAN_ANOMALY":105.0699,"EPHEMERIS_TYPE":0,"CLASSIFICATION_TYPE":"U","NORAD_CAT_ID":58474,"ELEMENT_SET_NO":999,"REV_AT_EPOCH":594,"BSTAR":0.0012211228,"MEAN_MOTION_DOT":0.00316328,"MEAN_MOTION_DDOT":0},{"OBJECT_NAME":"STARLINK-30941","OBJECT_ID":"2023-186C","EPOCH":"2026-02-21T07:14:25.507968","MEAN_MOTION":15.02547286,"ECCENTRICITY":0.0001451,"INCLINATION":43.0022,"RA_OF_ASC_NODE":156.7288,"ARG_OF_PERICENTER":253.7205,"MEAN_ANOMALY":106.3478,"EPHEMERIS_TYPE":0,"CLASSIFICATION_TYPE":"U","NORAD_CAT_ID":58475,"ELEMENT_SET_NO":999,"REV_AT_EPOCH":12338,"BSTAR":-0.00038663,"MEAN_MOTION_DOT":-5.424e-5,"MEAN_MOTION_DDOT":0},{"OBJECT_NAME":"STARLINK-30980","OBJECT_ID":"2023-186D","EPOCH":"2026-02-21T07:09:39.424608","MEAN_MOTION":15.02517555,"ECCENTRICITY":0.0001152,"INCLINATION":43.0018,"RA_OF_ASC_NODE":156.7019,"ARG_OF_PERICENTER":258.27,"MEAN_ANOMALY":101.8013,"EPHEMERIS_TYPE":0,"CLASSIFICATION_TYPE":"U","NORAD_CAT_ID":58476,"ELEMENT_SET_NO":999,"REV_AT_EPOCH":12338,"BSTAR":-8.2863e-5,"MEAN_MOTION_DOT":-1.322e-5,"MEAN_MOTION_DDOT":0},{"OBJECT_NAME":"STARLINK-30965","OBJECT_ID":"2023-186E","EPOCH":"2026-02-21T06:49:10.580736","MEAN_MOTION":15.02561899,"ECCENTRICITY":0.0001721,"INCLINATION":43.0026,"RA_OF_ASC_NODE":143.5905,"ARG_OF_PERICENTER":259.5017,"MEAN_ANOMALY":100.5632,"EPHEMERIS_TYPE":0,"CLASSIFICATION_TYPE":"U","NORAD_CAT_ID":58477,"ELEMENT_SET_NO":999,"REV_AT_EPOCH":12353,"BSTAR":0.00026154,"MEAN_MOTION_DOT":3.333e-5,"MEAN_MOTION_DDOT":0},{"OBJECT_NAME":"STARLINK-30990","OBJECT_ID":"2023-186F","EPOCH":"2026-02-21T07:04:49.937952","MEAN_MOTION":15.0253406,"ECCENTRICITY":0.0001737,"INCLINATION":43.0037,"RA_OF_ASC_NODE":156.6785,"ARG_OF_PERICENTER":268.1139,"MEAN_ANOMALY":91.9504,"EPHEMERIS_TYPE":0,"CLASSIFICATION_TYPE":"U","NORAD_CAT_ID":58478,"ELEMENT_SET_NO":999,"REV_AT_EPOCH":12342,"BSTAR":7.0691e-5,"MEAN_MOTION_DOT":7.51e-6,"MEAN_MOTION_DDOT":0},{"OBJECT_NAME":"STARLINK-30984","OBJECT_ID":"2023-186H","EPOCH":"2026-02-21T14:00:01.999872","MEAN_MOTION":15.18773305,"ECCENTRICITY":0.00013806,"INCLINATION":43.0007,"RA_OF_ASC_NODE":154.0471,"ARG_OF_PERICENTER":275.8252,"MEAN_ANOMALY":293.1319,"EPHEMERIS_TYPE":0,"CLASSIFICATION_TYPE":"U","NORAD_CAT_ID":58480,"ELEMENT_SET_NO":999,"REV_AT_EPOCH":578,"BSTAR":0.05572708,"MEAN_MOTION_DOT":0.01276864,"MEAN_MOTION_DDOT":0},{"OBJECT_NAME":"STARLINK-30956","OBJECT_ID":"2023-186J","EPOCH":"2026-02-21T06:21:18.650016","MEAN_MOTION":15.02535418,"ECCENTRICITY":0.0001416,"INCLINATION":43.0009,"RA_OF_ASC_NODE":132.0268,"ARG_OF_PERICENTER":267.4234,"MEAN_ANOMALY":92.6446,"EPHEMERIS_TYPE":0,"CLASSIFICATION_TYPE":"U","NORAD_CAT_ID":58481,"ELEMENT_SET_NO":999,"REV_AT_EPOCH":12366,"BSTAR":4.0749e-5,"MEAN_MOTION_DOT":3.47e-6,"MEAN_MOTION_DDOT":0},{"OBJECT_NAME":"STARLINK-30997","OBJECT_ID":"2023-186K","EPOCH":"2026-02-21T14:00:01.999872","MEAN_MOTION":15.18190017,"ECCENTRICITY":4.075e-5,"INCLINATION":43,"RA_OF_ASC_NODE":154.2579,"ARG_OF_PERICENTER":316.9226,"MEAN_ANOMALY":153.6402,"EPHEMERIS_TYPE":0,"CLASSIFICATION_TYPE":"U","NORAD_CAT_ID":58482,"ELEMENT_SET_NO":999,"REV_AT_EPOCH":577,"BSTAR":0.11259968,"MEAN_MOTION_DOT":0.02587624,"MEAN_MOTION_DDOT":0},{"OBJECT_NAME":"STARLINK-30994","OBJECT_ID":"2023-186L","EPOCH":"2026-02-21T05:00:46.437120","MEAN_MOTION":15.27571828,"ECCENTRICITY":8.05e-5,"INCLINATION":43.0005,"RA_OF_ASC_NODE":353.2414,"ARG_OF_PERICENTER":217.5561,"MEAN_ANOMALY":142.5235,"EPHEMERIS_TYPE":0,"CLASSIFICATION_TYPE":"U","NORAD_CAT_ID":58483,"ELEMENT_SET_NO":999,"REV_AT_EPOCH":12528,"BSTAR":-1.4132e-5,"MEAN_MOTION_DOT":-6.51e-6,"MEAN_MOTION_DDOT":0},{"OBJECT_NAME":"STARLINK-30991","OBJECT_ID":"2023-186M","EPOCH":"2026-02-21T14:00:01.999872","MEAN_MOTION":15.18533995,"ECCENTRICITY":0.0001368,"INCLINATION":43.0007,"RA_OF_ASC_NODE":154.0127,"ARG_OF_PERICENTER":281.6288,"MEAN_ANOMALY":301.234,"EPHEMERIS_TYPE":0,"CLASSIFICATION_TYPE":"U","NORAD_CAT_ID":58484,"ELEMENT_SET_NO":999,"REV_AT_EPOCH":573,"BSTAR":0.056123727,"MEAN_MOTION_DOT":0.01277155,"MEAN_MOTION_DDOT":0},{"OBJECT_NAME":"STARLINK-30979","OBJECT_ID":"2023-186N","EPOCH":"2026-02-21T14:00:01.999872","MEAN_MOTION":15.17736561,"ECCENTRICITY":0.00011105,"INCLINATION":43,"RA_OF_ASC_NODE":154.6192,"ARG_OF_PERICENTER":294.3388,"MEAN_ANOMALY":36.7601,"EPHEMERIS_TYPE":0,"CLASSIFICATION_TYPE":"U","NORAD_CAT_ID":58485,"ELEMENT_SET_NO":999,"REV_AT_EPOCH":568,"BSTAR":0.057746624,"MEAN_MOTION_DOT":0.01285045,"MEAN_MOTION_DDOT":0}]
